XRISM                   
1 57800U 23137A   24222.87513238  .00011317  00000+0  83869-3 0  9994
2 57800  31.0040  30.6969 0009869  20.7390 339.3645 15.01876920 50687
